NORAD_CAT_ID,OBJECT_NAME,OBJECT_TYPE,EPOCH,MEAN_MOTION,ECCENTRICITY,INCLINATION,RA_OF_ASC_NODE,ARG_OF_PERICENTER,MEAN_ANOMALY,BSTAR,MEAN_MOTION_DOT,MEAN_MOTION_DDOT,TLE_LINE0,TLE_LINE1,TLE_LINE2,SEMIMAJOR_AXIS,PERIOD,APOGEE,PERIGEE,DECAYED
49155.0,STARLINK-3060,PAYLOAD,2022-10-05 01:30:48,14.96719381,0.0003543999999999,70.0036,170.1343,255.6113,104.4652,0.00015532,1.687e-05,0.0,0 STARLINK-3060,1 49155U 21082AB  22278.06305900  .00001687  00000-0  15532-3 0  9992,2 49155  70.0036 170.1343 0003544 255.6113 104.4652 14.96719381 60568,6955.178000000001,96.21,579.508,574.578,0.0
49155.0,STARLINK-3060,PAYLOAD,2022-10-05 04:43:17,14.96715398,0.0003405,70.0037,169.7975,253.2919,106.7866,6.4822e-05,6.5e-06,0.0,0 STARLINK-3060,1 49155U 21082AB  22278.19672529  .00000650  00000-0  64822-4 0  9996,2 49155  70.0037 169.7975 0003405 253.2919 106.7866 14.96715398 60586,6955.19,96.211,579.424,574.687,0.0
49155.0,STARLINK-3060,PAYLOAD,2022-10-05 20:45:40,14.96712138,0.0003213,70.0048,168.1168,251.8933,108.1876,2.4514e-05,1.89e-06,0.0,0 STARLINK-3060,1 49155U 21082AB  22278.86504945  .00000189  00000-0  24514-4 0  9997,2 49155  70.0048 168.1168 0003213 251.8933 108.1876 14.96712138 60689,6955.201,96.211,579.3,574.831,0.0
49155.0,STARLINK-3060,PAYLOAD,2022-10-06 03:10:37,14.96714558,0.0003266,70.0047,167.4447,251.5205,108.5598,0.00012033,1.286e-05,0.0,0 STARLINK-3060,1 49155U 21082AB  22279.13237760  .00001286  00000-0  12033-3 0  9997,2 49155  70.0047 167.4447 0003266 251.5205 108.5598 14.96714558 60725,6955.193,96.211,579.33,574.786,0.0
49155.0,STARLINK-3060,PAYLOAD,2022-10-06 09:35:34,14.96721845,0.00032,70.0047,166.7724,252.7454,107.3354,0.00032372,3.616e-05,0.0,0 STARLINK-3060,1 49155U 21082AB  22279.39970375  .00003616  00000-0  32372-3 0  9998,2 49155  70.0047 166.7724 0003200 252.7454 107.3354 14.96721845 60760,6955.17,96.21,579.261,574.81,0.0
49155.0,STARLINK-3060,PAYLOAD,2022-10-06 19:13:00,14.96718264,0.0003093,70.0058,165.7645,251.8084,108.2738,0.00035356,3.958e-05,0.0,0 STARLINK-3060,1 49155U 21082AB  22279.80069809  .00003958  00000-0  35356-3 0  9999,2 49155  70.0058 165.7645 0003093 251.8084 108.2738 14.96718264 60826,6955.182,96.21,579.198,574.895,0.0
49155.0,STARLINK-3060,PAYLOAD,2022-10-07 04:50:26,14.96720487,0.0003133,70.0051,164.755,251.7459,108.3358,0.000462,5.201e-05,0.0,0 STARLINK-3060,1 49155U 21082AB  22280.20168982  .00005201  00000-0  46200-3 0  9990,2 49155  70.0051 164.7550 0003133 251.7459 108.3358 14.96720487 60888,6955.175,96.21,579.219,574.861,0.0
49155.0,STARLINK-3060,PAYLOAD,2022-10-07 20:52:48,14.96723382,0.000338,70.0051,163.0762,251.1358,108.9433,0.00037433,4.196e-05,0.0,0 STARLINK-3060,1 49155U 21082AB  22280.87000718  .00004196  00000-0  37433-3 0  9995,2 49155  70.0051 163.0762 0003380 251.1358 108.9433 14.96723382 60989,6955.166,96.21,579.382,574.68,0.0
49155.0,STARLINK-3060,PAYLOAD,2022-10-08 04:53:59,14.96722644,0.0004428999999999,70.0043,162.2327,244.8611,115.2088,0.00016528,1.801e-05,0.0,0 STARLINK-3060,1 49155U 21082AB  22281.20416154  .00001801  00000-0  16528-3 0  9990,2 49155  70.0043 162.2327 0004429 244.8611 115.2088 14.96722644 61038,6955.168000000002,96.21,580.113,573.953,0.0
49155.0,STARLINK-3060,PAYLOAD,2022-10-08 19:20:08,14.96723515,0.0003428,70.0041,160.7231,252.7304,107.348,0.00025918,2.877e-05,0.0,0 STARLINK-3060,1 49155U 21082AB  22281.80565418  .00002877  00000-0  25918-3 0  9991,2 49155  70.0041 160.7231 0003428 252.7304 107.3480 14.96723515 61124,6955.165,96.21,579.414,574.646,0.0
49155.0,STARLINK-3060,PAYLOAD,2022-10-09 03:21:20,14.96713697,0.0003122,70.005,159.8819,252.3752,107.7066,-4.7325e-05,-6.33e-06,0.0,0 STARLINK-3060,1 49155U 21082AB  22282.13981603 -.00000633  00000-0 -47325-4 0  9993,2 49155  70.0050 159.8819 0003122 252.3752 107.7066 14.96713697 61178,6955.196,96.211,579.232,574.889,0.0
49155.0,STARLINK-3060,PAYLOAD,2022-10-09 09:46:17,14.96716362,0.0003385,70.0045,159.2101,250.2512,109.8282,0.00010571,1.119e-05,0.0,0 STARLINK-3060,1 49155U 21082AB  22282.40714351  .00001119  00000-0  10571-3 0  9997,2 49155  70.0045 159.2101 0003385 250.2512 109.8282 14.96716362 61212,6955.187,96.211,579.4069999999998,574.698,0.0
49155.0,STARLINK-3060,PAYLOAD,2022-10-09 20:59:57,14.96724904,0.0003364,70.0042,158.0344,253.1729,106.9061,0.00069293,7.85e-05,0.0,0 STARLINK-3060,1 49155U 21082AB  22282.87496679  .00007850  00000-0  69293-3 0  9991,2 49155  70.0042 158.0344 0003364 253.1729 106.9061 14.96724904 61285,6955.161,96.21,579.366,574.686,0.0
49155.0,STARLINK-3060,PAYLOAD,2022-10-10 08:13:37,14.96719084,0.0002908999999999,70.0048,156.8566,252.6932,107.3909,0.00064348,7.282e-05,0.0,0 STARLINK-3060,1 49155U 21082AB  22283.34279269  .00007282  00000-0  64348-3 0  9993,2 49155  70.0048 156.8566 0002909 252.6932 107.3909 14.96719084 61354,6955.179,96.21,579.067,575.021,0.0
49155.0,STARLINK-3060,PAYLOAD,2022-10-10 19:27:17,14.9671835,0.0003412,70.0036,155.6813,253.2611,106.8173,4.822e-05,4.6e-06,0.0,0 STARLINK-3060,1 49155U 21082AB  22283.81061369  .00000460  00000-0  48220-4 0  9998,2 49155  70.0036 155.6813 0003412 253.2611 106.8173 14.96718350 61424,6955.181,96.21,579.419,574.673,0.0
49155.0,STARLINK-3060,PAYLOAD,2022-10-11 01:52:14,14.96716208,0.0003485,70.0033,155.0091,253.8085,106.269,2.2408000000000006e-05,1.65e-06,0.0,0 STARLINK-3060,1 49155U 21082AB  22284.07794303  .00000165  00000-0  22408-4 0  9990,2 49155  70.0033 155.0091 0003485 253.8085 106.2690 14.96716208 61466,6955.188,96.211,579.477,574.629,0.0
49155.0,STARLINK-3060,PAYLOAD,2022-10-12 01:55:49,14.96711086,0.0003421999999999,70.0028,152.4881,252.8526,107.2258,-4.2202e-05,-5.75e-06,0.0,0 STARLINK-3060,1 49155U 21082AB  22285.08042978 -.00000575  00000-0 -42202-4 0  9997,2 49155  70.0028 152.4881 0003422 252.8526 107.2258 14.96711086 61615,6955.204000000002,96.211,579.4490000000002,574.689,0.0
49155.0,STARLINK-3060,PAYLOAD,2022-10-12 08:20:46,14.96712695,0.0003424,70.003,151.8157,251.9812,108.0974,5.751100000000001e-05,5.67e-06,0.0,0 STARLINK-3060,1 49155U 21082AB  22285.34775786  .00000567  00000-0  57511-4 0  9994,2 49155  70.0030 151.8157 0003424 251.9812 108.0974 14.96712695 61652,6955.199000000001,96.211,579.445,574.682,0.0
49155.0,STARLINK-3060,PAYLOAD,2022-10-12 19:34:26,14.96713275,0.000329,70.0021,150.6396,250.5703,109.51,0.00017487,1.91e-05,0.0,0 STARLINK-3060,1 49155U 21082AB  22285.81558162  .00001910  00000-0  17487-3 0  9993,2 49155  70.0021 150.6396 0003290 250.5703 109.5100 14.96713275 61729,6955.196999999999,96.211,579.35,574.774,0.0
49155.0,STARLINK-3060,PAYLOAD,2022-10-13 01:59:23,14.96716799,0.000328,70.002,149.9672,250.4458,109.6346,0.00021717,2.395e-05,0.0,0 STARLINK-3060,1 49155U 21082AB  22286.08290778  .00002395  00000-0  21717-3 0  9998,2 49155  70.0020 149.9672 0003280 250.4458 109.6346 14.96716799 61762,6955.186,96.211,579.332,574.77,0.0
49155.0,STARLINK-3060,PAYLOAD,2022-10-13 08:24:22,14.96653865,0.000307,70.002,149.295,243.7723,116.312,0.0017335,0.00019774,0.0,0 STARLINK-3060,1 49155U 21082AB  22286.35025970  .00019774  00000-0  17335-2 0  9997,2 49155  70.0020 149.2950 0003070 243.7723 116.3120 14.96653865 61805,6955.380999999999,96.215,579.381,575.111,0.0
49155.0,STARLINK-3060,PAYLOAD,2022-10-13 18:01:46,14.96714175,0.000332,70.0013,148.2865,250.2602,109.8198,0.00017643,1.928e-05,0.0,0 STARLINK-3060,1 49155U 21082AB  22286.75123160  .00001928  00000-0  17643-3 0  9996,2 49155  70.0013 148.2865 0003320 250.2602 109.8198 14.96714175 61868,6955.194,96.211,579.368,574.75,0.0
49155.0,STARLINK-3060,PAYLOAD,2022-10-13 21:14:15,14.9671224,0.0003313,70.002,147.9504,250.6954,109.3846,0.00014477,1.566e-05,0.0,0 STARLINK-3060,1 49155U 21082AB  22286.88489707  .00001566  00000-0  14477-3 0  9992,2 49155  70.0020 147.9504 0003313 250.6954 109.3846 14.96712240 61886,6955.2,96.211,579.369,574.761,0.0
49155.0,STARLINK-3060,PAYLOAD,2022-10-14 08:27:54,14.96716968,0.0003233,70.0019,146.774,251.364,108.7167,0.0001698,1.852e-05,0.0,0 STARLINK-3060,1 49155U 21082AB  22287.35271856  .00001852  00000-0  16980-3 0  9998,2 49155  70.0019 146.7740 0003233 251.3640 108.7167 14.96716968 61952,6955.186,96.211,579.299,574.802,0.0
49155.0,STARLINK-3060,PAYLOAD,2022-10-14 21:17:48,14.96727611,0.0003261,70.0018,145.4295,251.7756,108.3047,0.00017955,1.965e-05,0.0,0 STARLINK-3060,1 49155U 21082AB  22287.88736574  .00001965  00000-0  17955-3 0  9997,2 49155  70.0018 145.4295 0003261 251.7756 108.3047 14.96727611 62035,6955.153,96.21,579.286,574.749,0.0
49155.0,STARLINK-3060,PAYLOAD,2022-10-15 00:30:16,14.967302800000002,0.000322,70.0027,145.0934,252.2409,107.8398,0.00024176,2.678e-05,0.0,0 STARLINK-3060,1 49155U 21082AB  22288.02102836  .00002678  00000-0  24176-3 0  9997,2 49155  70.0027 145.0934 0003220 252.2409 107.8398 14.96730280 62058,6955.144,96.21,579.249,574.77,0.0
49155.0,STARLINK-3060,PAYLOAD,2022-10-15 18:08:53,14.96723142,0.0003187,70.0028,143.2447,251.7879,108.2933,7.905600000000001e-05,8.14e-06,0.0,0 STARLINK-3060,1 49155U 21082AB  22288.75617929  .00000814  00000-0  79056-4 0  9999,2 49155  70.0028 143.2447 0003187 251.7879 108.2933 14.96723142 62166,6955.166,96.21,579.248,574.815,0.0
49155.0,STARLINK-3060,PAYLOAD,2022-10-16 03:46:19,14.96718535,0.0003177,70.0027,142.2363,251.828,108.2532,2.2602e-05,1.67e-06,0.0,0 STARLINK-3060,1 49155U 21082AB  22289.15717232  .00000167  00000-0  22602-4 0  9998,2 49155  70.0027 142.2363 0003177 251.8280 108.2532 14.96718535 62229,6955.181,96.21,579.255,574.836,0.0
49155.0,STARLINK-3060,PAYLOAD,2022-10-16 18:12:28,14.96713486,0.0003163,70.0017,140.7238,251.4938,108.5877,-7.1765e-05,-9.13e-06,0.0,0 STARLINK-3060,1 49155U 21082AB  22289.75866832 -.00000913  00000-0 -71765-4 0  9990,2 49155  70.0017 140.7238 0003163 251.4938 108.5877 14.96713486 62318,6955.196,96.211,579.261,574.861,0.0
